{
  "links" : {
    "next" : "https://api.nasa.gov/neo/rest/v1/feed?start_date=1998-11-23&end_date=1998-11-23&detailed=true&api_key=t0TVs3DtDT2H8Oy2Zy8m2eVrNsAVKAexjcZXUckd",
    "prev" : "https://api.nasa.gov/neo/rest/v1/feed?start_date=1998-11-21&end_date=1998-11-21&detailed=true&api_key=t0TVs3DtDT2H8Oy2Zy8m2eVrNsAVKAexjcZXUckd",
    "self" : "https://api.nasa.gov/neo/rest/v1/feed?start_date=1998-11-22&end_date=1998-11-22&detailed=true&api_key=t0TVs3DtDT2H8Oy2Zy8m2eVrNsAVKAexjcZXUckd"
  },
  "element_count" : 5,
  "near_earth_objects" : {
    "1998-11-22" : [ {
      "links" : {
        "self" : "https://api.nasa.gov/neo/rest/v1/neo/3015691?api_key=t0TVs3DtDT2H8Oy2Zy8m2eVrNsAVKAexjcZXUckd"
      },
      "neo_reference_id" : "3015691",
      "name" : "(1998 VF32)",
      "nasa_jpl_url" : "http://ssd.jpl.nasa.gov/sbdb.cgi?sstr=3015691",
      "absolute_magnitude_h" : 21.1,
      "estimated_diameter" : {
        "kilometers" : {
          "estimated_diameter_min" : 0.160160338,
          "estimated_diameter_max" : 0.358129403
        },
        "meters" : {
          "estimated_diameter_min" : 160.1603379786,
          "estimated_diameter_max" : 358.1294030194
        },
        "miles" : {
          "estimated_diameter_min" : 0.0995189894,
          "estimated_diameter_max" : 0.2225312253
        },
        "feet" : {
          "estimated_diameter_min" : 525.4604432536,
          "estimated_diameter_max" : 1174.9652706022
        }
      },
      "is_potentially_hazardous_asteroid" : true,
      "close_approach_data" : [ {
        "close_approach_date" : "1998-11-22",
        "epoch_date_close_approach" : 911721600000,
        "relative_velocity" : {
          "kilometers_per_second" : "16.0385087524",
          "kilometers_per_hour" : "57738.631508518",
          "miles_per_hour" : "35876.5402281677"
        },
        "miss_distance" : {
          "astronomical" : "0.0403226501",
          "lunar" : "15.6855106354",
          "kilometers" : "6032182.5",
          "miles" : "3748224.5"
        },
        "orbiting_body" : "Earth"
      } ],
      "orbital_data" : {
        "orbit_id" : "33",
        "orbit_determination_date" : "2016-12-10 15:01:27",
        "orbit_uncertainty" : "0",
        "minimum_orbit_intersection" : ".0369664",
        "jupiter_tisserand_invariant" : "6.778",
        "epoch_osculation" : "2457800.5",
        "eccentricity" : ".4438028642041213",
        "semi_major_axis" : ".8509265747732828",
        "inclination" : "23.74588352233252",
        "ascending_node_longitude" : "236.2872363949326",
        "orbital_period" : "286.7058519753619",
        "perihelion_distance" : ".4732829236614975",
        "perihelion_argument" : "320.9127897529287",
        "aphelion_distance" : "1.228570225885068",
        "perihelion_time" : "2457809.982168289621",
        "mean_anomaly" : "348.0937882476255",
        "mean_motion" : "1.255642316051982",
        "equinox" : "J2000"
      }
    }, {
      "links" : {
        "self" : "https://api.nasa.gov/neo/rest/v1/neo/2480820?api_key=t0TVs3DtDT2H8Oy2Zy8m2eVrNsAVKAexjcZXUckd"
      },
      "neo_reference_id" : "2480820",
      "name" : "480820 (1998 VF32)",
      "nasa_jpl_url" : "http://ssd.jpl.nasa.gov/sbdb.cgi?sstr=2480820",
      "absolute_magnitude_h" : 21.1,
      "estimated_diameter" : {
        "kilometers" : {
          "estimated_diameter_min" : 0.160160338,
          "estimated_diameter_max" : 0.358129403
        },
        "meters" : {
          "estimated_diameter_min" : 160.1603379786,
          "estimated_diameter_max" : 358.1294030194
        },
        "miles" : {
          "estimated_diameter_min" : 0.0995189894,
          "estimated_diameter_max" : 0.2225312253
        },
        "feet" : {
          "estimated_diameter_min" : 525.4604432536,
          "estimated_diameter_max" : 1174.9652706022
        }
      },
      "is_potentially_hazardous_asteroid" : true,
      "close_approach_data" : [ {
        "close_approach_date" : "1998-11-22",
        "epoch_date_close_approach" : 911721600000,
        "relative_velocity" : {
          "kilometers_per_second" : "16.0385088291",
          "kilometers_per_hour" : "57738.6317847146",
          "miles_per_hour" : "35876.5403997856"
        },
        "miss_distance" : {
          "astronomical" : "0.0403226466",
          "lunar" : "15.6855096817",
          "kilometers" : "6032182",
          "miles" : "3748224.25"
        },
        "orbiting_body" : "Earth"
      } ],
      "orbital_data" : {
        "orbit_id" : "35",
        "orbit_determination_date" : "2017-04-06 09:18:55",
        "orbit_uncertainty" : "0",
        "minimum_orbit_intersection" : ".0370434",
        "jupiter_tisserand_invariant" : "6.778",
        "epoch_osculation" : "2458000.5",
        "eccentricity" : ".4437751325497842",
        "semi_major_axis" : ".8509432788386113",
        "inclination" : "23.74618431107064",
        "ascending_node_longitude" : "236.2862342197413",
        "orbital_period" : "286.7142942609714",
        "perihelion_distance" : ".4733158124796585",
        "perihelion_argument" : "320.9158980869265",
        "aphelion_distance" : "1.228570745197564",
        "perihelion_time" : "2458096.693940246096",
        "mean_anomaly" : "239.2183745918372",
        "mean_motion" : "1.255605343737494",
        "equinox" : "J2000"
      }
    } ]
  }
}